NORAD_CAT_ID,OBJECT_NAME,OBJECT_TYPE,EPOCH,MEAN_MOTION,ECCENTRICITY,INCLINATION,RA_OF_ASC_NODE,ARG_OF_PERICENTER,MEAN_ANOMALY,BSTAR,MEAN_MOTION_DOT,MEAN_MOTION_DDOT,TLE_LINE0,TLE_LINE1,TLE_LINE2,SEMIMAJOR_AXIS,PERIOD,APOGEE,PERIGEE,DECAYED
53820.0,STARLINK-4758,PAYLOAD,2022-12-24 04:52:53,15.08834296,0.0002066,53.2191,163.3369,54.3505,305.7679,0.00010715,1.417e-05,0.0,0 STARLINK-4758,1 53820U 22114C   22358.20339629  .00001417  00000-0  10715-3 0  9992,2 53820  53.2191 163.3369 0002066  54.3505 305.7679 15.08834296 15434,6917.898,95.438,541.192,538.3340000000002,0.0
53820.0,STARLINK-4758,PAYLOAD,2022-12-24 11:14:25,15.08838639,0.000205,53.2194,162.1473,54.7037,305.4147,9.2074e-05,1.177e-05,0.0,0 STARLINK-4758,1 53820U 22114C   22358.46835502  .00001177  00000-0  92074-4 0  9993,2 53820  53.2194 162.1473 0002050  54.7037 305.4147 15.08838639 16014,6917.885,95.438,541.168,538.331,0.0
53820.0,STARLINK-4758,PAYLOAD,2022-12-24 17:35:58,15.08839108,0.000208,53.2192,160.9583,54.0204,306.0981,9.4211e-05,1.211e-05,0.0,0 STARLINK-4758,1 53820U 22114C   22358.73331465  .00001211  00000-0  94211-4 0  9996,2 53820  53.2192 160.9583 0002080  54.0204 306.0981 15.08839108 16051,6917.8830000000025,95.438,541.187,538.309,0.0
53820.0,STARLINK-4758,PAYLOAD,2022-12-25 11:05:12,15.08841163,0.0002039,53.2193,157.6874,54.4881,305.6301,6.6575e-05,7.72e-06,0.0,0 STARLINK-4758,1 53820U 22114C   22359.46195420  .00000772  00000-0  66575-4 0  9999,2 53820  53.2193 157.6874 0002039  54.4881 305.6301 15.08841163 16164,6917.877,95.437,541.1519999999998,538.331,0.0
53820.0,STARLINK-4758,PAYLOAD,2022-12-25 12:40:35,15.0884235,0.0002043,53.2193,157.39,54.8867,305.2316,6.807800000000001e-05,7.95e-06,0.0,0 STARLINK-4758,1 53820U 22114C   22359.52819326  .00000795  00000-0  68078-4 0  9999,2 53820  53.2193 157.3900 0002043  54.8867 305.2316 15.08842350 15636,6917.873000000001,95.437,541.1519999999998,538.325,0.0
53820.0,STARLINK-4758,PAYLOAD,2022-12-25 20:37:31,15.08847489,0.0002072,53.2194,155.9033,54.5457,305.5729,7.3458e-05,8.81e-06,0.0,0 STARLINK-4758,1 53820U 22114C   22359.85938865  .00000881  00000-0  73458-4 0  9999,2 53820  53.2194 155.9033 0002072  54.5457 305.5729 15.08847489 16227,6917.857,95.437,541.156,538.289,0.0
53820.0,STARLINK-4758,PAYLOAD,2022-12-26 10:55:59,15.08849206,0.0002073,53.2194,153.2274,55.1439,304.9748,2.9216e-05,1.77e-06,0.0,0 STARLINK-4758,1 53820U 22114C   22360.45554577  .00000177  00000-0  29216-4 0  9992,2 53820  53.2194 153.2274 0002073  55.1439 304.9748 15.08849206 16316,6917.852,95.437,541.151,538.283,0.0
53820.0,STARLINK-4758,PAYLOAD,2022-12-26 20:28:18,15.08846254,0.0002081,53.2192,151.4431,54.8099,305.3088,-9.4296e-07,-3.03e-06,0.0,0 STARLINK-4758,1 53820U 22114C   22360.85298665 -.00000303  00000-0 -94296-6 0  9994,2 53820  53.2192 151.4431 0002081  54.8099 305.3088 15.08846254 15834,6917.861,95.437,541.1659999999998,538.2869999999998,0.0
53820.0,STARLINK-4758,PAYLOAD,2022-12-27 10:46:45,15.08856281,0.0002067,53.2192,148.7666,53.7405,306.3778,4.8063e-05,4.77e-06,0.0,0 STARLINK-4758,1 53820U 22114C   22361.44913475  .00000477  00000-0  48063-4 0  9992,2 53820  53.2192 148.7666 0002067  53.7405 306.3778 15.08856281 15924,6917.831,95.437,541.126,538.266,0.0
53820.0,STARLINK-4758,PAYLOAD,2022-12-27 18:43:40,15.08855856,0.0002026,53.2189,147.2799,54.6573,305.4608,4.4817e-05,4.25e-06,0.0,0 STARLINK-4758,1 53820U 22114C   22361.78033126  .00000425  00000-0  44817-4 0  9991,2 53820  53.2189 147.2799 0002026  54.6573 305.4608 15.08855856 16517,6917.831999999999,95.437,541.0980000000002,538.295,0.0
53820.0,STARLINK-4758,PAYLOAD,2022-12-28 12:12:55,15.08845874,0.0001963,53.2191,144.0087,53.8433,306.274,2.5412e-05,1.16e-06,0.0,0 STARLINK-4758,1 53820U 22114C   22362.50897198  .00000116  00000-0  25412-4 0  9996,2 53820  53.2191 144.0087 0001963  53.8433 306.2740 15.08845874 16627,6917.861999999999,95.437,541.085,538.369,0.0
53820.0,STARLINK-4758,PAYLOAD,2022-12-29 02:31:24,15.0883799,0.0001974,53.2192,141.3328,53.142,306.9753,-7.506800000000001e-05,-1.483e-05,0.0,0 STARLINK-4758,1 53820U 22114C   22363.10513911 -.00001483  00000-0 -75068-4 0  9993,2 53820  53.2192 141.3328 0001974  53.1420 306.9753 15.08837990 16178,6917.887,95.438,541.117,538.386,0.0
53820.0,STARLINK-4758,PAYLOAD,2022-12-29 08:52:56,15.08836738,0.0002228,53.2176,140.1442,52.4236,307.6959,-0.00011929,-2.186e-05,0.0,0 STARLINK-4758,1 53820U 22114C   22363.37010211 -.00002186  00000-0 -11929-3 0  9993,2 53820  53.2176 140.1442 0002228  52.4236 307.6959 15.08836738 16753,6917.89,95.438,541.297,538.214,0.0
53820.0,STARLINK-4758,PAYLOAD,2022-12-29 18:25:16,15.08828837,0.0002023,53.2192,138.3596,49.8987,310.2182,-0.00019499,-3.389e-05,0.0,0 STARLINK-4758,1 53820U 22114C   22363.76755112 -.00003389  00000-0 -19499-3 0  9998,2 53820  53.2192 138.3596 0002023  49.8987 310.2182 15.08828837 16272,6917.915,95.438,541.179,538.38,0.0
53820.0,STARLINK-4758,PAYLOAD,2022-12-29 21:36:02,15.088343599999998,0.0002037,53.2191,137.7649,54.0349,306.0832,-0.00018169,-3.178e-05,0.0,0 STARLINK-4758,1 53820U 22114C   22363.90002781 -.00003178  00000-0 -18169-3 0  9990,2 53820  53.2191 137.7649 0002037  54.0349 306.0832 15.08834360 16833,6917.898,95.438,541.172,538.3530000000002,0.0
53820.0,STARLINK-4758,PAYLOAD,2022-12-30 13:29:52,15.08840537,0.000196,53.2191,134.7918,50.1469,309.9695,3.9724e-05,3.44e-06,0.0,0 STARLINK-4758,1 53820U 22114C   22364.56241733  .00000344  00000-0  39724-4 0  9996,2 53820  53.2191 134.7918 0001960  50.1469 309.9695 15.08840537 16396,6917.879,95.438,541.1,538.388,0.0
53820.0,STARLINK-4758,PAYLOAD,2022-12-31 02:12:56,15.08858564,0.0001553,53.2197,132.4128,53.7563,306.3573,0.00014008,1.943e-05,0.0,0 STARLINK-4758,1 53820U 22114C   22365.09231968  .00001943  00000-0  14008-3 0  9997,2 53820  53.2197 132.4128 0001553  53.7563 306.3573 15.08858564 16476,6917.824000000001,95.436,540.763,538.614,0.0
53820.0,STARLINK-4758,PAYLOAD,2022-12-31 14:56:01,15.08846693,0.0002045999999999,53.2203,130.0348,48.73,311.3868,0.00022121,3.235e-05,0.0,0 STARLINK-4758,1 53820U 22114C   22365.62224298  .00003235  00000-0  22121-3 0  9995,2 53820  53.2203 130.0348 0002046  48.7300 311.3868 15.08846693 16555,6917.86,95.437,541.14,538.31,0.0
53820.0,STARLINK-4758,PAYLOAD,2022-12-31 19:42:11,15.08841525,0.0001831,53.2207,129.1423,37.2739,322.838,0.0001125999999999,1.504e-05,0.0,0 STARLINK-4758,1 53820U 22114C   22365.82096840  .00001504  00000-0  11260-3 0  9996,2 53820  53.2207 129.1423 0001831  37.2739 322.8380 15.08841525 16580,6917.876,95.437,541.007,538.474,0.0
53820.0,STARLINK-4758,PAYLOAD,2023-01-01 08:25:17,15.08831659,0.0002039,53.2197,126.7634,48.8808,311.236,-3.7016e-05,-8.77e-06,0.0,0 STARLINK-4758,1 53820U 22114C   23001.35090164 -.00000877  00000-0 -37016-4 0  9997,2 53820  53.2197 126.7634 0002039  48.8808 311.2360 15.08831659 16667,6917.906,95.438,541.181,538.36,0.0
53820.0,STARLINK-4758,PAYLOAD,2023-01-01 19:33:00,15.08826314,0.0001719,53.2212,124.6815,45.3235,314.7897,-0.00021008,-3.629e-05,0.0,0 STARLINK-4758,1 53820U 22114C   23001.81459376 -.00003629  00000-0 -21008-3 0  9993,2 53820  53.2212 124.6815 0001719  45.3235 314.7897 15.08826314 17276,6917.922,95.438,540.976,538.5980000000002,0.0
53820.0,STARLINK-4758,PAYLOAD,2023-01-02 14:37:37,15.08842423,0.0001949,53.2225,121.1175,40.7768,319.337,-5.1929e-05,-1.115e-05,0.0,0 STARLINK-4758,1 53820U 22114C   23002.60946038 -.00001115  00000-0 -51929-4 0  9991,2 53820  53.2225 121.1175 0001949  40.7768 319.3370 15.08842423 16855,6917.873000000001,95.437,541.086,538.39,0.0
53820.0,STARLINK-4758,PAYLOAD,2023-01-02 19:23:46,15.08840842,0.000193,53.2196,120.2224,37.1491,322.9634,1.3624e-05,-7.1e-07,0.0,0 STARLINK-4758,1 53820U 22114C   23002.80817865 -.00000071  00000-0  13624-4 0  9997,2 53820  53.2196 120.2224 0001930  37.1491 322.9634 15.08840842 17420,6917.878000000002,95.438,541.078,538.408,0.0
53820.0,STARLINK-4758,PAYLOAD,2023-01-03 00:09:56,15.08835129,0.0001946,53.2195,119.3299,37.2906,322.8221,-3.3811e-05,-8.26e-06,0.0,0 STARLINK-4758,1 53820U 22114C   23003.00690441 -.00000826  00000-0 -33811-4 0  9998,2 53820  53.2195 119.3299 0001946  37.2906 322.8221 15.08835129 16915,6917.895,95.438,541.107,538.414,0.0
53820.0,STARLINK-4758,PAYLOAD,2023-01-03 08:06:51,15.08836429,0.0001721999999999,53.2192,117.8429,37.849,322.2623,7.145199999999999e-05,8.49e-06,0.0,0 STARLINK-4758,1 53820U 22114C   23003.33810119  .00000849  00000-0  71452-4 0  9996,2 53820  53.2192 117.8429 0001722  37.8490 322.2623 15.08836429 17506,6917.891,95.438,540.948,538.565,0.0
53820.0,STARLINK-4758,PAYLOAD,2023-01-04 14:19:11,15.08842008,0.0001973,53.2204,112.1941,34.7693,325.3428,4.0627e-05,3.58e-06,0.0,0 STARLINK-4758,1 53820U 22114C   23004.59666526  .00000358  00000-0  40627-4 0  9991,2 53820  53.2204 112.1941 0001973  34.7693 325.3428 15.08842008 17154,6917.874,95.437,541.104,538.374,0.0
53820.0,STARLINK-4758,PAYLOAD,2023-01-04 23:51:31,15.08836634,0.0001848,53.2192,110.4098,32.7183,327.3924,-2.4417e-05,-6.77e-06,0.0,0 STARLINK-4758,1 53820U 22114C   23004.99411085 -.00000677  00000-0 -24417-4 0  9998,2 53820  53.2192 110.4098 0001848  32.7183 327.3924 15.08836634 17215,6917.891,95.438,541.034,538.477,0.0
53820.0,STARLINK-4758,PAYLOAD,2023-01-05 09:23:51,15.08822723,0.000176,53.2212,108.6278,43.8632,316.25,-0.00014524,-2.598e-05,0.0,0 STARLINK-4758,1 53820U 22114C   23005.39156802 -.00002598  00000-0 -14524-3 0  9997,2 53820  53.2212 108.6278 0001760  43.8632 316.2500 15.08822723 17279,6917.933000000001,95.439,541.016,538.581,0.0
53820.0,STARLINK-4758,PAYLOAD,2023-01-05 15:45:24,15.08825047,0.0002017,53.2203,107.4397,48.2103,311.9062,-0.00013812,-2.485e-05,0.0,0 STARLINK-4758,1 53820U 22114C   23005.65652913 -.00002485  00000-0 -13812-3 0  9994,2 53820  53.2203 107.4397 0002017  48.2103 311.9062 15.08825047 17857,6917.926,95.439,541.186,538.396,0.0
